[{"OBJECT_NAME":"LEMUR-2-JK0903EM1407","OBJECT_ID":"2023-174CJ","EPOCH":"2026-03-09T19:14:51.434880","MEAN_MOTION":15.46691029,"ECCENTRICITY":0.00063296,"INCLINATION":97.3909,"RA_OF_ASC_NODE":156.8827,"ARG_OF_PERICENTER":116.525,"MEAN_ANOMALY":243.6649,"EPHEMERIS_TYPE":0,"CLASSIFICATION_TYPE":"U","NORAD_CAT_ID":58336,"ELEMENT_SET_NO":999,"REV_AT_EPOCH":13034,"BSTAR":0.00050850806,"MEAN_MOTION_DOT":0.00025373,"MEAN_MOTION_DDOT":0},{"OBJECT_NAME":"STARLINK-36327","OBJECT_ID":"2026-026T","EPOCH":"2026-03-09T22:00:01.999584","MEAN_MOTION":15.49021592,"ECCENTRICITY":0.00018302,"INCLINATION":97.2842,"RA_OF_ASC_NODE":123.5292,"ARG_OF_PERICENTER":74.2502,"MEAN_ANOMALY":197.7952,"EPHEMERIS_TYPE":0,"CLASSIFICATION_TYPE":"U","NORAD_CAT_ID":67738,"ELEMENT_SET_NO":999,"REV_AT_EPOCH":535,"BSTAR":-0.039261584,"MEAN_MOTION_DOT":-0.01907871,"MEAN_MOTION_DDOT":0}]
